CCSDS_OMM_VERS = 2.0
CREATION_DATE  = 
ORIGINATOR     = 

OBJECT_NAME    = STARLINK-36891
OBJECT_ID      = 2026-040K
CENTER_NAME    = EARTH
REF_FRAME      = TEME
TIME_SYSTEM    = UTC
MEAN_ELEMENT_THEORY = SGP/SGP4

EPOCH          = 2026-03-14T22:00:01.999584
MEAN_MOTION    = 15.93502012
ECCENTRICITY   = .00011427
INCLINATION    = 97.2715
RA_OF_ASC_NODE = 22.5526
ARG_OF_PERICENTER = 84.1390
MEAN_ANOMALY   = 267.0019

EPHEMERIS_TYPE = 0
CLASSIFICATION_TYPE = U
NORAD_CAT_ID   = 68024
ELEMENT_SET_NO = 999
REV_AT_EPOCH   = 326
BSTAR          = -.46017445E-2
MEAN_MOTION_DOT = -.1625378E-1
MEAN_MOTION_DDOT = .75160596E-3

CCSDS_OMM_VERS = 2.0
CREATION_DATE  = 
ORIGINATOR     = 

OBJECT_NAME    = STARLINK-36378
OBJECT_ID      = 2026-040L
CENTER_NAME    = EARTH
REF_FRAME      = TEME
TIME_SYSTEM    = UTC
MEAN_ELEMENT_THEORY = SGP/SGP4

EPOCH          = 2026-03-14T22:00:01.999584
MEAN_MOTION    = 15.93566941
ECCENTRICITY   = .00011067
INCLINATION    = 97.2735
RA_OF_ASC_NODE = 22.5577
ARG_OF_PERICENTER = 88.9384
MEAN_ANOMALY   = 270.9113

EPHEMERIS_TYPE = 0
CLASSIFICATION_TYPE = U
NORAD_CAT_ID   = 68025
ELEMENT_SET_NO = 999
REV_AT_EPOCH   = 321
BSTAR          = -.45923716E-2
MEAN_MOTION_DOT = -.1627548E-1
MEAN_MOTION_DDOT = .75397209E-3

CCSDS_OMM_VERS = 2.0
CREATION_DATE  = 
ORIGINATOR     = 

OBJECT_NAME    = STARLINK-36884
OBJECT_ID      = 2026-040M
CENTER_NAME    = EARTH
REF_FRAME      = TEME
TIME_SYSTEM    = UTC
MEAN_ELEMENT_THEORY = SGP/SGP4

EPOCH          = 2026-03-14T22:00:01.999584
MEAN_MOTION    = 15.93524138
ECCENTRICITY   = .00010991
INCLINATION    = 97.2726
RA_OF_ASC_NODE = 22.5547
ARG_OF_PERICENTER = 88.3335
MEAN_ANOMALY   = 267.2635

EPHEMERIS_TYPE = 0
CLASSIFICATION_TYPE = U
NORAD_CAT_ID   = 68026
ELEMENT_SET_NO = 999
REV_AT_EPOCH   = 326
BSTAR          = -.45783942E-2
MEAN_MOTION_DOT = -.1619067E-1
MEAN_MOTION_DDOT = .74636491E-3

CCSDS_OMM_VERS = 2.0
CREATION_DATE  = 
ORIGINATOR     = 

OBJECT_NAME    = STARLINK-36940
OBJECT_ID      = 2026-040N
CENTER_NAME    = EARTH
REF_FRAME      = TEME
TIME_SYSTEM    = UTC
MEAN_ELEMENT_THEORY = SGP/SGP4

EPOCH          = 2026-03-14T22:00:01.999584
MEAN_MOTION    = 15.93411505
ECCENTRICITY   = .00012947
INCLINATION    = 97.2794
RA_OF_ASC_NODE = 22.5877
ARG_OF_PERICENTER = 81.7277
MEAN_ANOMALY   = 348.1448

EPHEMERIS_TYPE = 0
CLASSIFICATION_TYPE = U
NORAD_CAT_ID   = 68027
ELEMENT_SET_NO = 999
REV_AT_EPOCH   = 336
BSTAR          = -.57596959E-2
MEAN_MOTION_DOT = -.2019632E-1
MEAN_MOTION_DDOT = .11270125E-2

CCSDS_OMM_VERS = 2.0
CREATION_DATE  = 
ORIGINATOR     = 

OBJECT_NAME    = STARLINK-36253
OBJECT_ID      = 2026-040P
CENTER_NAME    = EARTH
REF_FRAME      = TEME
TIME_SYSTEM    = UTC
MEAN_ELEMENT_THEORY = SGP/SGP4

EPOCH          = 2026-03-14T22:00:01.999584
MEAN_MOTION    = 15.80692848
ECCENTRICITY   = .00015945
INCLINATION    = 97.2838
RA_OF_ASC_NODE = 22.3780
ARG_OF_PERICENTER = 45.5136
MEAN_ANOMALY   = 261.4977

EPHEMERIS_TYPE = 0
CLASSIFICATION_TYPE = U
NORAD_CAT_ID   = 68028
ELEMENT_SET_NO = 999
REV_AT_EPOCH   = 336
BSTAR          = .68620016E-3
MEAN_MOTION_DOT = .132568E-2
MEAN_MOTION_DDOT = 0

CCSDS_OMM_VERS = 2.0
CREATION_DATE  = 
ORIGINATOR     = 

OBJECT_NAME    = STARLINK-36944
OBJECT_ID      = 2026-040Q
CENTER_NAME    = EARTH
REF_FRAME      = TEME
TIME_SYSTEM    = UTC
MEAN_ELEMENT_THEORY = SGP/SGP4

EPOCH          = 2026-03-14T22:00:01.999584
MEAN_MOTION    = 15.93620321
ECCENTRICITY   = .00010769
INCLINATION    = 97.2725
RA_OF_ASC_NODE = 22.5576
ARG_OF_PERICENTER = 84.0056
MEAN_ANOMALY   = 279.7981

EPHEMERIS_TYPE = 0
CLASSIFICATION_TYPE = U
NORAD_CAT_ID   = 68029
ELEMENT_SET_NO = 999
REV_AT_EPOCH   = 326
BSTAR          = -.46068365E-2
MEAN_MOTION_DOT = -.1637117E-1
MEAN_MOTION_DDOT = .76264552E-3

CCSDS_OMM_VERS = 2.0
CREATION_DATE  = 
ORIGINATOR     = 

OBJECT_NAME    = STARLINK-36942
OBJECT_ID      = 2026-040R
CENTER_NAME    = EARTH
REF_FRAME      = TEME
TIME_SYSTEM    = UTC
MEAN_ELEMENT_THEORY = SGP/SGP4

EPOCH          = 2026-03-14T22:00:01.999584
MEAN_MOTION    = 15.93656787
ECCENTRICITY   = .00011779
INCLINATION    = 97.2741
RA_OF_ASC_NODE = 22.5607
ARG_OF_PERICENTER = 89.0205
MEAN_ANOMALY   = 279.1186

EPHEMERIS_TYPE = 0
CLASSIFICATION_TYPE = U
NORAD_CAT_ID   = 68030
ELEMENT_SET_NO = 999
REV_AT_EPOCH   = 326
BSTAR          = -.46017236E-2
MEAN_MOTION_DOT = -.1638426E-1
MEAN_MOTION_DDOT = .76406443E-3

CCSDS_OMM_VERS = 2.0
CREATION_DATE  = 
ORIGINATOR     = 

OBJECT_NAME    = STARLINK-36913
OBJECT_ID      = 2026-040S
CENTER_NAME    = EARTH
REF_FRAME      = TEME
TIME_SYSTEM    = UTC
MEAN_ELEMENT_THEORY = SGP/SGP4

EPOCH          = 2026-03-14T22:00:01.999584
MEAN_MOTION    = 15.93695341
ECCENTRICITY   = .00011052
INCLINATION    = 97.2745
RA_OF_ASC_NODE = 22.5625
ARG_OF_PERICENTER = 97.1498
MEAN_ANOMALY   = 275.3061

EPHEMERIS_TYPE = 0
CLASSIFICATION_TYPE = U
NORAD_CAT_ID   = 68031
ELEMENT_SET_NO = 999
REV_AT_EPOCH   = 326
BSTAR          = -.46026754E-2
MEAN_MOTION_DOT = -.1642018E-1
MEAN_MOTION_DDOT = .76748203E-3

CCSDS_OMM_VERS = 2.0
CREATION_DATE  = 
ORIGINATOR     = 

OBJECT_NAME    = STARLINK-36935
OBJECT_ID      = 2026-040T
CENTER_NAME    = EARTH
REF_FRAME      = TEME
TIME_SYSTEM    = UTC
MEAN_ELEMENT_THEORY = SGP/SGP4

EPOCH          = 2026-03-14T22:00:01.999584
MEAN_MOTION    = 15.94029026
ECCENTRICITY   = .00011334
INCLINATION    = 97.2770
RA_OF_ASC_NODE = 22.5750
ARG_OF_PERICENTER = 94.1288
MEAN_ANOMALY   = 308.2146

EPHEMERIS_TYPE = 0
CLASSIFICATION_TYPE = U
NORAD_CAT_ID   = 68032
ELEMENT_SET_NO = 999
REV_AT_EPOCH   = 336
BSTAR          = -.46111206E-2
MEAN_MOTION_DOT = -.1673695E-1
MEAN_MOTION_DDOT = .79797911E-3

CCSDS_OMM_VERS = 2.0
CREATION_DATE  = 
ORIGINATOR     = 

OBJECT_NAME    = STARLINK-36947
OBJECT_ID      = 2026-040U
CENTER_NAME    = EARTH
REF_FRAME      = TEME
TIME_SYSTEM    = UTC
MEAN_ELEMENT_THEORY = SGP/SGP4

EPOCH          = 2026-03-14T22:00:01.999584
MEAN_MOTION    = 15.93761580
ECCENTRICITY   = .00010669
INCLINATION    = 97.2747
RA_OF_ASC_NODE = 22.5641
ARG_OF_PERICENTER = 87.7525
MEAN_ANOMALY   = 288.4580

EPHEMERIS_TYPE = 0
CLASSIFICATION_TYPE = U
NORAD_CAT_ID   = 68033
ELEMENT_SET_NO = 999
REV_AT_EPOCH   = 326
BSTAR          = -.46169924E-2
MEAN_MOTION_DOT = -.1652715E-1
MEAN_MOTION_DDOT = .77733085E-3

CCSDS_OMM_VERS = 2.0
CREATION_DATE  = 
ORIGINATOR     = 

OBJECT_NAME    = STARLINK-36939
OBJECT_ID      = 2026-040V
CENTER_NAME    = EARTH
REF_FRAME      = TEME
TIME_SYSTEM    = UTC
MEAN_ELEMENT_THEORY = SGP/SGP4

EPOCH          = 2026-03-14T22:00:01.999584
MEAN_MOTION    = 15.93962432
ECCENTRICITY   = .00011685
INCLINATION    = 97.2772
RA_OF_ASC_NODE = 22.5719
ARG_OF_PERICENTER = 91.8357
MEAN_ANOMALY   = 300.9335

EPHEMERIS_TYPE = 0
CLASSIFICATION_TYPE = U
NORAD_CAT_ID   = 68034
ELEMENT_SET_NO = 999
REV_AT_EPOCH   = 326
BSTAR          = -.46023919E-2
MEAN_MOTION_DOT = -.1664808E-1
MEAN_MOTION_DDOT = .78957275E-3

CCSDS_OMM_VERS = 2.0
CREATION_DATE  = 
ORIGINATOR     = 

OBJECT_NAME    = STARLINK-36943
OBJECT_ID      = 2026-040W
CENTER_NAME    = EARTH
REF_FRAME      = TEME
TIME_SYSTEM    = UTC
MEAN_ELEMENT_THEORY = SGP/SGP4

EPOCH          = 2026-03-14T22:00:01.999584
MEAN_MOTION    = 15.93812726
ECCENTRICITY   = .00010671
INCLINATION    = 97.2790
RA_OF_ASC_NODE = 22.5819
ARG_OF_PERICENTER = 87.4403
MEAN_ANOMALY   = 326.7968

EPHEMERIS_TYPE = 0
CLASSIFICATION_TYPE = U
NORAD_CAT_ID   = 68035
ELEMENT_SET_NO = 999
REV_AT_EPOCH   = 331
BSTAR          = -.47688102E-2
MEAN_MOTION_DOT = -.1710944E-1
MEAN_MOTION_DDOT = .82948149E-3

